IRIDIUM 154             
1 43574U 18061F   26155.11512074  .00000111  00000+0  32597-4 0  9991
2 43574  86.3969  62.2718 0002045  86.1294 274.0136 14.34217472411535
IRIDIUM 163             
1 43575U 18061G   26155.09609211  .00000096  00000+0  27320-4 0  9999
2 43575  86.3967  62.1953 0002353  84.8294 275.3171 14.34218514411509
IRIDIUM 156             
1 43576U 18061H   26154.65211288  .00000075  00000+0  19671-4 0  9991
2 43576  86.3964  62.3884 0002202  78.3978 281.7465 14.34216992411439
IRIDIUM 164             
1 43577U 18061J   26155.12146129  .00000183  00000+0  58117-4 0  9994
2 43577  86.3967  62.2324 0002087  90.4227 269.7208 14.34216430411544
IRIDIUM 159             
1 43578U 18061K   26154.25252876 -.00000003  00000+0 -81803-5 0  9997
2 43578  86.3964  62.5325 0002189  85.5676 274.5770 14.34217381411388
IRIDIUM 180             
1 43922U 19002A   26155.08924748  .00000019  00000+0 -10230-6 0  9995
2 43922  86.3973 359.0742 0002230  89.3702 270.7750 14.34217610387111
IRIDIUM 176             
1 43923U 19002B   26155.10918546  .00000926  00000+0  14304-3 0  9997
2 43923  86.6094 359.0116 0002067  84.8735 275.2718 14.72250537397323
IRIDIUM 168             
1 43924U 19002C   26155.08290465 -.00000017  00000+0 -13094-4 0  9997
2 43924  86.3974 359.1537 0002050  89.1006 271.0425 14.34217284387099
IRIDIUM 173             
1 43925U 19002D   26155.07021762  .00000262  00000+0  86519-4 0  9991
2 43925  86.3973 359.0486 0002255  87.4462 272.6992 14.34219202387071
IRIDIUM 169             
1 43926U 19002E   26155.10620239  .00000356  00000+0  10998-3 0  9991
2 43926  86.4235  30.6621 0002350  69.1920 290.9530 14.38608273388345
IRIDIUM 172             
1 43927U 19002F   26155.06387709  .00000024  00000+0  15379-5 0  9991
2 43927  86.3974 359.0592 0002271  89.7635 270.3821 14.34217486387086
IRIDIUM 175             
1 43928U 19002G   26154.34351604  .00000367  00000+0  10234-3 0  9990
2 43928  86.4502 296.3094 0000989 262.2416  97.8672 14.43604578396981
IRIDIUM 171             
1 43929U 19002H   26155.11461721  .00000014  00000+0 -20017-5 0  9991
2 43929  86.3983 359.3425 0002026  85.3395 274.8032 14.34217557387081
IRIDIUM 170             
1 43930U 19002J   26155.11537060  .00000251  00000+0  35948-4 0  9993
2 43930  86.6099 359.0117 0002366  87.6012 272.5476 14.72248600397338
IRIDIUM 167             
1 43931U 19002K   26155.10827407  .00000025  00000+0  17424-5 0  9999
2 43931  86.3975 359.0626 0001903  83.6021 276.5391 14.34217664387081
IRIDIUM 181             
1 56726U 23068S   26154.86454174  .00000229  00000+0  61933-4 0  9990
2 56726  86.4505  62.3588 0002275  88.3834 271.7627 14.43306685160513
IRIDIUM 177             
1 56727U 23068T   26155.00501736  .00000454  00000+0  56244-4 0  9994
2 56727  86.1957 335.0540 0002446  86.4663 273.6838 14.80229750164415
IRIDIUM 174             
1 56728U 23068U   26155.10300935 -.00000014  00000+0 -62114-5 0  9992
2 56728  86.6101 359.1625 0002485  89.3509 270.7993 14.72251410164090
IRIDIUM 178             
1 56729U 23068V   26155.06175075  .00001233  00000+0  15885-3 0  9996
2 56729  86.6548  30.8455 0002496  88.8573 271.2935 14.80243860164425
IRIDIUM 179             
1 56730U 23068W   26155.12399692  .00001228  00000+0  15820-3 0  9991
2 56730  86.6788  39.7600 0002344  85.6513 274.4977 14.80240814164432
