OBJECT_NAME,OBJECT_ID,EPOCH,MEAN_MOTION,ECCENTRICITY,INCLINATION,RA_OF_ASC_NODE,ARG_OF_PERICENTER,MEAN_ANOMALY,EPHEMERIS_TYPE,CLASSIFICATION_TYPE,NORAD_CAT_ID,ELEMENT_SET_NO,REV_AT_EPOCH,BSTAR,MEAN_MOTION_DOT,MEAN_MOTION_DDOT
IRIDIUM 154,2018-061F,2026-06-04T02:45:46.431936,14.34217472,.00020455,86.3969,62.2718,86.1294,274.0136,0,U,43574,999,41153,.32596743E-4,.111E-5,0
IRIDIUM 163,2018-061G,2026-06-04T02:18:22.358304,14.34218514,.00023538,86.3967,62.1953,84.8294,275.3171,0,U,43575,999,41150,.27320253E-4,.96E-6,0
IRIDIUM 156,2018-061H,2026-06-03T15:39:02.552832,14.34216992,.0002202,86.3964,62.3884,78.3978,281.7465,0,U,43576,999,41143,.19671E-4,.75E-6,0
IRIDIUM 164,2018-061J,2026-06-04T02:54:54.255456,14.34216430,.00020873,86.3967,62.2324,90.4227,269.7208,0,U,43577,999,41154,.58116525E-4,.183E-5,0
IRIDIUM 159,2018-061K,2026-06-03T06:03:38.484864,14.34217381,.00021896,86.3964,62.5325,85.5676,274.5770,0,U,43578,999,41138,-.8180285E-5,-.3E-7,0
IRIDIUM 180,2019-002A,2026-06-04T02:08:30.982272,14.34217610,.000223,86.3973,359.0742,89.3702,270.7750,0,U,43922,999,38711,-.102304E-6,.19E-6,0
IRIDIUM 176,2019-002B,2026-06-04T02:37:13.623744,14.72250537,.0002067,86.6094,359.0116,84.8735,275.2718,0,U,43923,999,39732,.14303584E-3,.926E-5,0
IRIDIUM 168,2019-002C,2026-06-04T01:59:22.961760,14.34217284,.00020509,86.3974,359.1537,89.1006,271.0425,0,U,43924,999,38709,-.13094491E-4,-.17E-6,0
IRIDIUM 173,2019-002D,2026-06-04T01:41:06.802368,14.34219202,.00022551,86.3973,359.0486,87.4462,272.6992,0,U,43925,999,38707,.86519218E-4,.262E-5,0
IRIDIUM 169,2019-002E,2026-06-04T02:32:55.886496,14.38608273,.00023509,86.4235,30.6621,69.1920,290.9530,0,U,43926,999,38834,.10998204E-3,.356E-5,0
IRIDIUM 172,2019-002F,2026-06-04T01:31:58.980576,14.34217486,.00022712,86.3974,359.0592,89.7635,270.3821,0,U,43927,999,38708,.153792E-5,.24E-6,0
IRIDIUM 175,2019-002G,2026-06-03T08:14:39.785856,14.43604578,.00009891,86.4502,296.3094,262.2416,97.8672,0,U,43928,999,39698,.10234176E-3,.367E-5,0
IRIDIUM 171,2019-002H,2026-06-04T02:45:02.926944,14.34217557,.00020268,86.3983,359.3425,85.3395,274.8032,0,U,43929,999,38708,-.2001684E-5,.14E-6,0
IRIDIUM 170,2019-002J,2026-06-04T02:46:08.019840,14.72248600,.00023666,86.6099,359.0117,87.6012,272.5476,0,U,43930,999,39733,.35948254E-4,.251E-5,0
IRIDIUM 167,2019-002K,2026-06-04T02:35:54.879648,14.34217664,.00019034,86.3975,359.0626,83.6021,276.5391,0,U,43931,999,38708,.174242E-5,.25E-6,0
IRIDIUM 181,2023-068S,2026-06-03T20:44:56.406336,14.43306685,.0002275,86.4505,62.3588,88.3834,271.7627,0,U,56726,999,16051,.61933E-4,.229E-5,0
IRIDIUM 177,2023-068T,2026-06-04T00:07:13.499904,14.80229750,.00024468,86.1957,335.0540,86.4663,273.6838,0,U,56727,999,16441,.56244437E-4,.454E-5,0
IRIDIUM 174,2023-068U,2026-06-04T02:28:20.007840,14.72251410,.00024854,86.6101,359.1625,89.3509,270.7993,0,U,56728,999,16409,-.621144E-5,-.14E-6,0
IRIDIUM 178,2023-068V,2026-06-04T01:28:55.264800,14.80243860,.00024961,86.6548,30.8455,88.8573,271.2935,0,U,56729,999,16442,.15884698E-3,.1233E-4,0
IRIDIUM 179,2023-068W,2026-06-04T02:58:33.333888,14.80240814,.00023441,86.6788,39.7600,85.6513,274.4977,0,U,56730,999,16443,.15819789E-3,.1228E-4,0
